NORAD_CAT_ID,OBJECT_NAME,OBJECT_TYPE,EPOCH,MEAN_MOTION,ECCENTRICITY,INCLINATION,RA_OF_ASC_NODE,ARG_OF_PERICENTER,MEAN_ANOMALY,BSTAR,MEAN_MOTION_DOT,MEAN_MOTION_DDOT,TLE_LINE0,TLE_LINE1,TLE_LINE2,SEMIMAJOR_AXIS,PERIOD,APOGEE,PERIGEE,DECAYED
52680.0,STARLINK-3774,PAYLOAD,2024-04-14 01:55:40,15.08842078,0.0001399,53.2185,22.1132,100.453,259.662,6.9242e-05,8.14e-06,0.0,0 STARLINK-3774,1 52680U 22053AA  24105.08032783  .00000814  00000-0  69242-4 0  9996,2 52680  53.2185  22.1132 0001399 100.4530 259.6620 15.08842078105888,6917.874,95.437,540.707,538.771,0.0
52680.0,STARLINK-3774,PAYLOAD,2024-04-14 22:35:41,15.08844637,0.0001382,53.2189,18.2457,88.5218,271.5932,0.00015536,2.186e-05,0.0,0 STARLINK-3774,1 52680U 22053AA  24105.94144790  .00002186  00000-0  15536-3 0  9993,2 52680  53.2189  18.2457 0001382  88.5218 271.5932 15.08844637106422,6917.866,95.437,540.687,538.775,0.0
52680.0,STARLINK-3774,PAYLOAD,2024-04-15 03:21:49,15.08859077,0.0001376,53.2193,17.3536,94.1536,265.9613,0.00037404,5.673e-05,0.0,0 STARLINK-3774,1 52680U 22053AA  24106.14016098  .00005673  00000-0  37404-3 0  9997,2 52680  53.2193  17.3536 0001376  94.1536 265.9613 15.08859077106049,6917.822,95.436,540.639,538.735,0.0
52680.0,STARLINK-3774,PAYLOAD,2024-04-15 17:40:18,15.08839944,0.0001622,53.2196,14.6771,82.7548,277.3628,7.4188e-05,8.93e-06,0.0,0 STARLINK-3774,1 52680U 22053AA  24106.73633078  .00000893  00000-0  74188-4 0  9995,2 52680  53.2196  14.6771 0001622  82.7548 277.3628 15.08839944106137,6917.881,95.438,540.868,538.623,0.0
52680.0,STARLINK-3774,PAYLOAD,2024-04-16 11:09:32,15.08856257,0.0001332,53.2185,11.4048,88.7374,271.3771,0.00030432,4.561e-05,0.0,0 STARLINK-3774,1 52680U 22053AA  24107.46496130  .00004561  00000-0  30432-3 0  9991,2 52680  53.2185  11.4048 0001332  88.7374 271.3771 15.08856257106249,6917.831,95.437,540.617,538.774,0.0
52680.0,STARLINK-3774,PAYLOAD,2024-04-16 20:41:51,15.08849693,0.0001638,53.2197,9.6202,93.9876,266.1304,0.00010297,1.352e-05,0.0,0 STARLINK-3774,1 52680U 22053AA  24107.86240365  .00001352  00000-0  10297-3 0  9994,2 52680  53.2197   9.6202 0001638  93.9876 266.1304 15.08849693106304,6917.851,95.437,540.849,538.583,0.0
52680.0,STARLINK-3774,PAYLOAD,2024-04-16 22:17:14,15.08845012,0.00015,53.2191,9.3225,102.7164,257.3996,1.5716e-05,-3.8e-07,0.0,0 STARLINK-3774,1 52680U 22053AA  24107.92864477 -.00000038  00000-0  15716-4 0  9990,2 52680  53.2191   9.3225 0001500 102.7164 257.3996 15.08845012106723,6917.865,95.437,540.768,538.692,0.0
52680.0,STARLINK-3774,PAYLOAD,2024-04-17 03:03:23,15.08856719,0.0001382,53.2176,8.4313,114.9996,245.114,0.00012377,1.683e-05,0.0,0 STARLINK-3774,1 52680U 22053AA  24108.12735786  .00001683  00000-0  12377-3 0  9998,2 52680  53.2176   8.4313 0001382 114.9996 245.1140 15.08856719106755,6917.829,95.436,540.65,538.738,0.0
52680.0,STARLINK-3774,PAYLOAD,2024-04-17 20:32:39,15.08836729,0.0001551,53.2189,5.1596,104.7534,255.363,1.9394e-05,2.1e-07,0.0,0 STARLINK-3774,1 52680U 22053AA  24108.85601051  .00000021  00000-0  19394-4 0  9997,2 52680  53.2189   5.1596 0001551 104.7534 255.3630 15.08836729106452,6917.89,95.438,540.828,538.682,0.0
52680.0,STARLINK-3774,PAYLOAD,2024-04-17 22:08:02,15.08837722,0.0001608,53.2184,4.8648,87.2273,272.8904,6.9954e-05,8.25e-06,0.0,0 STARLINK-3774,1 52680U 22053AA  24108.92225159  .00000825  00000-0  69954-4 0  9995,2 52680  53.2184   4.8648 0001608  87.2273 272.8904 15.08837722106877,6917.887,95.438,540.865,538.64,0.0
52680.0,STARLINK-3774,PAYLOAD,2024-04-18 02:54:11,15.08846187,0.0001751,53.2188,3.9697,107.0563,253.0621,0.00012672,1.73e-05,0.0,0 STARLINK-3774,1 52680U 22053AA  24109.12096614  .00001730  00000-0  12672-3 0  9990,2 52680  53.2188   3.9697 0001751 107.0563 253.0621 15.08846187106497,6917.861,95.437,540.938,538.515,0.0
52680.0,STARLINK-3774,PAYLOAD,2024-04-18 20:23:26,15.08833432,0.0002196,53.2181,0.6939,130.3188,229.7996,3.3994e-05,2.53e-06,0.0,0 STARLINK-3774,1 52680U 22053AA  24109.84961170  .00000253  00000-0  33994-4 0  9997,2 52680  53.2181   0.6939 0002196 130.3188 229.7996 15.08833432106606,6917.9,95.438,541.285,538.246,0.0
52680.0,STARLINK-3774,PAYLOAD,2024-04-18 21:58:49,15.08833654,0.000197,53.2185,0.396,129.3736,230.7431,5.2106e-05,5.41e-06,0.0,0 STARLINK-3774,1 52680U 22053AA  24109.91585256  .00000541  00000-0  52106-4 0  9998,2 52680  53.2185   0.3960 0001970 129.3736 230.7431 15.08833654107026,6917.9,95.438,541.128,538.402,0.0
52680.0,STARLINK-3774,PAYLOAD,2024-04-18 23:34:12,15.08836792,0.0001618,53.2184,0.1023,114.1091,246.0071,7.1076e-05,8.43e-06,0.0,0 STARLINK-3774,1 52680U 22053AA  24109.98209377  .00000843  00000-0  71076-4 0  9994,2 52680  53.2184   0.1023 0001618 114.1091 246.0071 15.08836792107035,6917.89,95.438,540.875,538.636,0.0
52680.0,STARLINK-3774,PAYLOAD,2024-04-19 20:14:13,15.08846837,0.0001373,53.2184,356.2401,56.0872,304.0251,0.00024452,3.606e-05,0.0,0 STARLINK-3774,1 52680U 22053AA  24110.84321292  .00003606  00000-0  24452-3 0  9997,2 52680  53.2184 356.2401 0001373  56.0872 304.0251 15.08846837106753,6917.859,95.437,540.674,538.775,0.0
52680.0,STARLINK-3774,PAYLOAD,2024-04-19 21:49:36,15.08857954,0.0001458,53.2182,355.9417,104.5185,255.5968,0.00044697,6.836e-05,0.0,0 STARLINK-3774,1 52680U 22053AA  24110.90944784  .00006836  00000-0  44697-3 0  9992,2 52680  53.2182 355.9417 0001458 104.5185 255.5968 15.08857954107178,6917.826,95.436,540.699,538.682,0.0
52680.0,STARLINK-3774,PAYLOAD,2024-04-20 02:35:45,15.08865683,0.0001545,53.2185,355.0449,104.9354,255.1809,0.00061214,9.474e-05,0.0,0 STARLINK-3774,1 52680U 22053AA  24111.10816404  .00009474  00000-0  61214-3 0  9997,2 52680  53.2185 355.0449 0001545 104.9354 255.1809 15.08865683106791,6917.802,95.436,540.736,538.598,0.0
52680.0,STARLINK-3774,PAYLOAD,2024-04-20 21:40:24,15.08827559,0.0001977,53.2193,351.4849,77.5235,282.5978,-0.00020948,-3.619e-05,0.0,0 STARLINK-3774,1 52680U 22053AA  24111.90306304 -.00003619  00000-0 -20948-3 0  9994,2 52680  53.2193 351.4849 0001977  77.5235 282.5978 15.08827559107327,6917.918,95.438,541.151,538.416,0.0
52680.0,STARLINK-3774,PAYLOAD,2024-04-21 02:26:34,15.08832172,0.0002371,53.2188,350.5868,87.4072,272.7191,-5.1743e-05,-1.112e-05,0.0,0 STARLINK-3774,1 52680U 22053AA  24112.10178289 -.00001112  00000-0 -51743-4 0  9990,2 52680  53.2188 350.5868 0002371  87.4072 272.7191 15.08832172106942,6917.904,95.438,541.41,538.129,0.0
52680.0,STARLINK-3774,PAYLOAD,2024-04-21 19:55:47,15.08851732,0.0002044,53.2179,347.3164,97.3355,262.7869,0.00039631,6.027e-05,0.0,0 STARLINK-3774,1 52680U 22053AA  24112.83041604  .00006027  00000-0  39631-3 0  9999,2 52680  53.2179 347.3164 0002044  97.3355 262.7869 15.08851732107053,6917.845,95.437,541.124,538.296,0.0
52680.0,STARLINK-3774,PAYLOAD,2024-04-22 00:41:57,15.08844812,0.0001594,53.2185,346.4256,109.3566,250.7598,0.00022471,3.291e-05,0.0,0 STARLINK-3774,1 52680U 22053AA  24113.02913707  .00003291  00000-0  22471-3 0  9997,2 52680  53.2185 346.4256 0001594 109.3566 250.7598 15.08844812107089,6917.866,95.437,540.833,538.628,0.0
52680.0,STARLINK-3774,PAYLOAD,2024-04-22 19:46:35,15.08835194,0.0001605,53.2178,342.8584,100.8151,259.3022,-3.4297e-05,-8.34e-06,0.0,0 STARLINK-3774,1 52680U 22053AA  24113.82402218 -.00000834  00000-0 -34297-4 0  9997,2 52680  53.2178 342.8584 0001605 100.8151 259.3022 15.08835194107208,6917.895,95.438,540.87,538.65,0.0
52680.0,STARLINK-3774,PAYLOAD,2024-04-23 00:32:44,15.08860057,0.0001437,53.2184,341.9657,100.451,259.6644,0.00034854,5.266e-05,0.0,0 STARLINK-3774,1 52680U 22053AA  24114.02273283  .00005266  00000-0  34854-3 0  9998,2 52680  53.2184 341.9657 0001437 100.4510 259.6644 15.08860057107236,6917.819,95.436,540.678,538.69,0.0
52680.0,STARLINK-3774,PAYLOAD,2024-04-23 21:12:45,15.08845771,0.0001649,53.2199,338.0951,112.0874,248.0293,0.00012897,1.765e-05,0.0,0 STARLINK-3774,1 52680U 22053AA  24114.88385508  .00001765  00000-0  12897-3 0  9999,2 52680  53.2199 338.0951 0001649 112.0874 248.0293 15.08845771107365,6917.863,95.437,540.869,538.587,0.0
52680.0,STARLINK-3774,PAYLOAD,2024-04-24 00:23:30,15.08860381,0.0001459,53.219,337.5052,95.5165,264.5994,0.00038884,5.909e-05,0.0,0 STARLINK-3774,1 52680U 22053AA  24115.01633025  .00005909  00000-0  38884-3 0  9993,2 52680  53.2190 337.5052 0001459  95.5165 264.5994 15.08860381107386,6917.818,95.436,540.692,538.674,0.0
52680.0,STARLINK-3774,PAYLOAD,2024-04-24 21:03:32,15.08839416,0.0001405,53.218,333.6389,81.8877,278.2274,-0.00016582,-2.926e-05,0.0,0 STARLINK-3774,1 52680U 22053AA  24115.87746090 -.00002926  00000-0 -16582-3 0  9993,2 52680  53.2180 333.6389 0001405  81.8877 278.2274 15.08839416107517,6917.882,95.438,540.719,538.775,0.0
52680.0,STARLINK-3774,PAYLOAD,2024-04-25 14:32:47,15.08840246,0.0001516,53.2187,330.3673,115.8943,244.2205,-8.9188e-05,-1.707e-05,0.0,0 STARLINK-3774,1 52680U 22053AA  24116.60610360 -.00001707  00000-0 -89188-4 0  9994,2 52680  53.2187 330.3673 0001516 115.8943 244.2205 15.08840246108037,6917.88,95.438,540.793,538.696,0.0
52680.0,STARLINK-3774,PAYLOAD,2024-04-25 20:54:19,15.08845385,0.0001526,53.2192,329.184,117.0489,243.0659,3.337e-05,2.43e-06,0.0,0 STARLINK-3774,1 52680U 22053AA  24116.87106164  .00000243  00000-0  33370-4 0  9999,2 52680  53.2192 329.1840 0001526 117.0489 243.0659 15.08845385108078,6917.864,95.437,540.785,538.673,0.0
52680.0,STARLINK-3774,PAYLOAD,2024-04-26 00:05:05,15.08850114,0.0001309,53.2177,328.5823,97.858,262.2561,8.1528e-05,1.01e-05,0.0,0 STARLINK-3774,1 52680U 22053AA  24117.00353728  .00001010  00000-0  81528-4 0  9996,2 52680  53.2177 328.5823 0001309  97.8580 262.2561 15.08850114107688,6917.849,95.437,540.62,538.809,0.0
52680.0,STARLINK-3774,PAYLOAD,2024-04-26 14:23:34,15.08837741,0.0001075,53.2172,325.9052,91.7839,268.3276,9.2605e-05,1.186e-05,0.0,0 STARLINK-3774,1 52680U 22053AA  24117.59970702  .00001186  00000-0  92605-4 0  9999,2 52680  53.2172 325.9052 0001075  91.7839 268.3276 15.08837741108185,6917.887,95.438,540.496,539.009,0.0
